ADRAS-J                 
1 58992U 24034A   24113.10846384  .00008832  00000+0  83217-3 0  9995
2 58992  98.2078  83.6292 0043093 232.0898 127.6421 14.93369557  9497
